{
  "norad_id": 66186,
  "name": "STARLINK-35365",
  "history": [
    {
      "epoch": "2026-03-28T13:58:05.581920Z",
      "apogee_km": 475.9373377818565,
      "perigee_km": 474.403567573946,
      "latitude_deg": -2.5679184394862893e-06,
      "longitude_deg": 122.1647499880043,
      "height_km": 475.8595570995711,
      "semi_major_axis_km": 6853.307452677901,
      "eccentricity": 0.0001119,
      "inclination_deg": 53.1596,
      "raan_deg": 157.6884,
      "arg_perigee_deg": 74.1695,
      "mean_anomaly_deg": 285.9429,
      "mean_motion_rev_day": 15.30214943
    }
  ]
}